{
  "type": "FeatureCollection",
  "features": [
    {
      "type": "Feature",
      "properties": {
        "norad_id": 66932,
        "name": "STARLINK-36177",
        "group": "last-30-days",
        "lat": -50.64851102793345,
        "lon": -101.49538771339272,
        "alt_km": 342.79775745904044,
        "timestamp": "2025-12-20T07:33:49.515749+00:00",
        "meta_object_name": "STARLINK-36177",
        "meta_object_id": "2025-286H",
        "meta_epoch": "2025-12-19T22:00:01.999584",
        "meta_mean_motion": 15.7875651,
        "meta_eccentricity": 0.00010784,
        "meta_inclination": 53.1556,
        "meta_ra_of_asc_node": 14.3646,
        "meta_arg_of_pericenter": 79.3689,
        "meta_mean_anomaly": 70.5866,
        "meta_ephemeris_type": 0,
        "meta_classification_type": "U",
        "meta_norad_cat_id": 66932,
        "meta_element_set_no": 999,
        "meta_rev_at_epoch": 314,
        "meta_bstar": -0.0086426152,
        "meta_mean_motion_dot": -0.01379774,
        "meta_mean_motion_ddot": 0,
        "tle_line1": "1 66932U 25286H   25353.91668981 -.01379774  00000+0 -86426-2 0  9992",
        "tle_line2": "2 66932  53.1556  14.3646 0001078  79.3689  70.5866 15.78756510  3140"
      },
      "geometry": {
        "type": "Point",
        "coordinates": [
          -101.49538771339272,
          -50.64851102793345
        ]
      }
    },
    {
      "type": "Feature",
      "properties": {
        "norad_id": 66933,
        "name": "STARLINK-36157",
        "group": "last-30-days",
        "lat": -51.28601189958981,
        "lon": -98.3206590349345,
        "alt_km": 342.84822942138635,
        "timestamp": "2025-12-20T07:33:49.515759+00:00",
        "meta_object_name": "STARLINK-36157",
        "meta_object_id": "2025-286J",
        "meta_epoch": "2025-12-19T22:00:01.999584",
        "meta_mean_motion": 15.78727361,
        "meta_eccentricity": 9.505e-05,
        "meta_inclination": 53.1557,
        "meta_ra_of_asc_node": 14.3601,
        "meta_arg_of_pericenter": 83.2313,
        "meta_mean_anomaly": 68.8803,
        "meta_ephemeris_type": 0,
        "meta_classification_type": "U",
        "meta_norad_cat_id": 66933,
        "meta_element_set_no": 999,
        "meta_rev_at_epoch": 314,
        "meta_bstar": -0.0087270381,
        "meta_mean_motion_dot": -0.01390045,
        "meta_mean_motion_ddot": 0,
        "tle_line1": "1 66933U 25286J   25353.91668981 -.01390045  00000+0 -87270-2 0  9995",
        "tle_line2": "2 66933  53.1557  14.3601 0000950  83.2313  68.8803 15.78727361  3142"
      },
      "geometry": {
        "type": "Point",
        "coordinates": [
          -98.3206590349345,
          -51.28601189958981
        ]
      }
    },
    {
      "type": "Feature",
      "properties": {
        "norad_id": 66934,
        "name": "STARLINK-36153",
        "group": "last-30-days",
        "lat": -51.836227600001955,
        "lon": -95.05519713172829,
        "alt_km": 343.1341467234488,
        "timestamp": "2025-12-20T07:33:49.515769+00:00",
        "meta_object_name": "STARLINK-36153",
        "meta_object_id": "2025-286K",
        "meta_epoch": "2025-12-19T22:00:01.999584",
        "meta_mean_motion": 15.78690888,
        "meta_eccentricity": 0.00011845,
        "meta_inclination": 53.1557,
        "meta_ra_of_asc_node": 14.3552,
        "meta_arg_of_pericenter": 72.7612,
        "meta_mean_anomaly": 81.5164,
        "meta_ephemeris_type": 0,
        "meta_classification_type": "U",
        "meta_norad_cat_id": 66934,
        "meta_element_set_no": 999,
        "meta_rev_at_epoch": 314,
        "meta_bstar": -0.0087763562,
        "meta_mean_motion_dot": -0.01395099,
        "meta_mean_motion_ddot": 0,
        "tle_line1": "1 66934U 25286K   25353.91668981 -.01395099  00000+0 -87764-2 0  9998",
        "tle_line2": "2 66934  53.1557  14.3552 0001184  72.7612  81.5164 15.78690888  3148"
      },
      "geometry": {
        "type": "Point",
        "coordinates": [
          -95.05519713172829,
          -51.836227600001955
        ]
      }
    },
    {
      "type": "Feature",
      "properties": {
        "norad_id": 66935,
        "name": "STARLINK-36127",
        "group": "last-30-days",
        "lat": -52.313010070185,
        "lon": -91.5504159231039,
        "alt_km": 343.2440561571693,
        "timestamp": "2025-12-20T07:33:49.515781+00:00",
        "meta_object_name": "STARLINK-36127",
        "meta_object_id": "2025-286L",
        "meta_epoch": "2025-12-19T22:00:01.999584",
        "meta_mean_motion": 15.78637953,
        "meta_eccentricity": 0.00010679,
        "meta_inclination": 53.1552,
        "meta_ra_of_asc_node": 14.3508,
        "meta_arg_of_pericenter": 86.0869,
        "meta_mean_anomaly": 70.4855,
        "meta_ephemeris_type": 0,
        "meta_classification_type": "U",
        "meta_norad_cat_id": 66935,
        "meta_element_set_no": 999,
        "meta_rev_at_epoch": 314,
        "meta_bstar": -0.0088798576,
        "meta_mean_motion_dot": -0.01406622,
        "meta_mean_motion_ddot": 0,
        "tle_line1": "1 66935U 25286L   25353.91668981 -.01406622  00000+0 -88799-2 0  9993",
        "tle_line2": "2 66935  53.1552  14.3508 0001067  86.0869  70.4855 15.78637953  3145"
      },
      "geometry": {
        "type": "Point",
        "coordinates": [
          -91.5504159231039,
          -52.313010070185
        ]
      }
    },
    {
      "type": "Feature",
      "properties": {
        "norad_id": 66936,
        "name": "STARLINK-36160",
        "group": "last-30-days",
        "lat": -52.66014105854042,
        "lon": -88.24687969295394,
        "alt_km": 343.2833684249008,
        "timestamp": "2025-12-20T07:33:49.515794+00:00",
        "meta_object_name": "STARLINK-36160",
        "meta_object_id": "2025-286M",
        "meta_epoch": "2025-12-19T22:00:01.999584",
        "meta_mean_motion": 15.78618011,
        "meta_eccentricity": 9.955e-05,
        "meta_inclination": 53.1551,
        "meta_ra_of_asc_node": 14.3465,
        "meta_arg_of_pericenter": 80.9297,
        "meta_mean_anomaly": 77.7297,
        "meta_ephemeris_type": 0,
        "meta_classification_type": "U",
        "meta_norad_cat_id": 66936,
        "meta_element_set_no": 999,
        "meta_rev_at_epoch": 314,
        "meta_bstar": -0.0089612157,
        "meta_mean_motion_dot": -0.0141687,
        "meta_mean_motion_ddot": 0,
        "tle_line1": "1 66936U 25286M   25353.91668981 -.01416870  00000+0 -89612-2 0  9995",
        "tle_line2": "2 66936  53.1551  14.3465 0000995  80.9297  77.7297 15.78618011  3148"
      },
      "geometry": {
        "type": "Point",
        "coordinates": [
          -88.24687969295394,
          -52.66014105854042
        ]
      }
    },
    {
      "type": "Feature",
      "properties": {
        "norad_id": 66937,
        "name": "STARLINK-36165",
        "group": "last-30-days",
        "lat": -52.915840233952075,
        "lon": -84.87160705851662,
        "alt_km": 343.4378003875463,
        "timestamp": "2025-12-20T07:33:49.515805+00:00",
        "meta_object_name": "STARLINK-36165",
        "meta_object_id": "2025-286N",
        "meta_epoch": "2025-12-19T22:00:01.999584",
        "meta_mean_motion": 15.78588683,
        "meta_eccentricity": 0.00010829,
        "meta_inclination": 53.1554,
        "meta_ra_of_asc_node": 14.3419,
        "meta_arg_of_pericenter": 72.3545,
        "meta_mean_anomaly": 88.4126,
        "meta_ephemeris_type": 0,
        "meta_classification_type": "U",
        "meta_norad_cat_id": 66937,
        "meta_element_set_no": 999,
        "meta_rev_at_epoch": 314,
        "meta_bstar": -0.0089915743,
        "meta_mean_motion_dot": -0.01419494,
        "meta_mean_motion_ddot": 0,
        "tle_line1": "1 66937U 25286N   25353.91668981 -.01419494  00000+0 -89916-2 0  9998",
        "tle_line2": "2 66937  53.1554  14.3419 0001082  72.3545  88.4126 15.78588683  3141"
      },
      "geometry": {
        "type": "Point",
        "coordinates": [
          -84.87160705851662,
          -52.915840233952075
        ]
      }
    },
    {
      "type": "Feature",
      "properties": {
        "norad_id": 66938,
        "name": "STARLINK-36155",
        "group": "last-30-days",
        "lat": -53.07457209589898,
        "lon": -81.45662477345506,
        "alt_km": 343.4750327747597,
        "timestamp": "2025-12-20T07:33:49.515815+00:00",
        "meta_object_name": "STARLINK-36155",
        "meta_object_id": "2025-286P",
        "meta_epoch": "2025-12-19T22:00:01.999584",
        "meta_mean_motion": 15.78562736,
        "meta_eccentricity": 9.916e-05,
        "meta_inclination": 53.1554,
        "meta_ra_of_asc_node": 14.3372,
        "meta_arg_of_pericenter": 85.3739,
        "meta_mean_anomaly": 77.5037,
        "meta_ephemeris_type": 0,
        "meta_classification_type": "U",
        "meta_norad_cat_id": 66938,
        "meta_element_set_no": 999,
        "meta_rev_at_epoch": 314,
        "meta_bstar": -0.0090553499,
        "meta_mean_motion_dot": -0.01426866,
        "meta_mean_motion_ddot": 0,
        "tle_line1": "1 66938U 25286P   25353.91668981 -.01426866  00000+0 -90553-2 0  9999",
        "tle_line2": "2 66938  53.1554  14.3372 0000991  85.3739  77.5037 15.78562736  3148"
      },
      "geometry": {
        "type": "Point",
        "coordinates": [
          -81.45662477345506,
          -53.07457209589898
        ]
      }
    }
  ]
}